H1 CPF 01  gfz 2022 07 13 12  6942 terrasarx 
H2 0702601  6201 31698    2022 07 13 12 59 42 2022 07 18 00 00 42   120 1 1  0 0 0
H9
10 0 59777  48942.000000  0   -2803308.622  -6276030.989   -476735.873
10 0 59777  49062.000000  0   -2914955.010  -6091487.992  -1372969.864
10 0 59777  49182.000000  0   -2971540.457  -5799130.685  -2245066.730
10 0 59777  49302.000000  0   -2970287.793  -5405135.844  -3077725.980
10 0 59777  49422.000000  0   -2909560.381  -4917494.001  -3856372.302
10 0 59777  49542.000000  0   -2788915.270  -4345837.607  -4567411.515
10 0 59777  49662.000000  0   -2609131.577  -3701241.344  -5198464.264
10 0 59777  49782.000000  0   -2372214.428  -2995999.613  -5738574.739
10 0 59777  49902.000000  0   -2081374.598  -2243386.074  -6178391.912
10 0 59777  50022.000000  0   -1740983.470  -1457400.201  -6510321.049
10 0 59777  50142.000000  0   -1356505.251   -652506.225  -6728643.052
10 0 59777  50262.000000  0    -934409.114    156630.218  -6829601.900
10 0 59777  50382.000000  0    -482061.648    955403.257  -6811461.735
10 0 59777  50502.000000  0      -7600.649   1729523.618  -6674533.329
10 0 59777  50622.000000  0     480206.377   2465267.305  -6421169.714
10 0 59777  50742.000000  0     972120.298   3149714.773  -6055732.323
10 0 59777  50862.000000  0    1458601.704   3770976.163  -5584523.180
10 0 59777  50982.000000  0    1929991.590   4318398.033  -5015686.296
10 0 59777  51102.000000  0    2376700.455   4782750.223  -4359078.969
10 0 59777  51222.000000  0    2789401.669   5156389.073  -3626111.115
10 0 59777  51342.000000  0    3159224.958   5433391.904  -2829555.555
10 0 59777  51462.000000  0    3477947.121   5609660.966  -1983331.169
10 0 59777  51582.000000  0    3738174.497   5682992.325  -1102261.251
10 0 59777  51702.000000  0    3933512.091   5653108.239   -201811.509
10 0 59777  51822.000000  0    4058714.932   5521650.846    702187.011
10 0 59777  51942.000000  0    4109817.861   5292136.452   1593823.929
10 0 59777  52062.000000  0    4084239.738   4969871.979   2457396.778
10 0 59777  52182.000000  0    3980861.075   4561838.019   3277696.941
10 0 59777  52302.000000  0    3800069.108   4076534.710   4040285.707
10 0 59777  52422.000000  0    3543773.578   3523800.590   4731751.244
10 0 59777  52542.000000  0    3215391.517   2914609.040   5339948.315
10 0 59777  52662.000000  0    2819797.833   2260843.269   5854210.689
10 0 59777  52782.000000  0    2363250.516   1575059.341   6265531.990
10 0 59777  52902.000000  0    1853288.518    870241.153   6566718.430
10 0 59777  53022.000000  0    1298603.779    159552.796   6752507.719
10 0 59777  53142.000000  0     708891.049   -543906.001   6819655.871
10 0 59777  53262.000000  0      94677.819  -1227341.450   6766991.524
10 0 59777  53382.000000  0    -532863.901  -1878498.318   6595434.668
10 0 59777  53502.000000  0   -1162120.685  -2485879.699   6307980.759
10 0 59777  53622.000000  0   -1781250.891  -3038949.885   5909650.134
10 0 59777  53742.000000  0   -2378405.177  -3528318.297   5407406.781
10 0 59777  53862.000000  0   -2941954.640  -3945903.301   4810044.730
10 0 59777  53982.000000  0   -3460721.642  -4285071.164   4128039.761
10 0 59777  54102.000000  0   -3924205.215  -4540746.267   3373368.628
10 0 59777  54222.000000  0   -4322796.515  -4709491.262   2559300.321
10 0 59777  54342.000000  0   -4647981.324  -4789555.764   1700162.391
10 0 59777  54462.000000  0   -4892524.337  -4780890.684    811084.392
10 0 59777  54582.000000  0   -5050629.624  -4685127.598    -92275.086
10 0 59777  54702.000000  0   -5118073.629  -4505523.947   -994012.529
10 0 59777  54822.000000  0   -5092306.619  -4246875.055  -1878269.232
10 0 59777  54942.000000  0   -4972519.153  -3915394.312  -2729519.267
10 0 59777  55062.000000  0   -4759672.369  -3518565.902  -3532847.552
10 0 59777  55182.000000  0   -4456493.216  -3064975.299  -4274213.039
10 0 59777  55302.000000  0   -4067435.089  -2564121.521  -4940692.947
10 0 59777  55422.000000  0   -3598604.802  -2026215.640  -5520702.947
10 0 59777  55542.000000  0   -3057658.967  -1461970.991  -6004190.240
10 0 59777  55662.000000  0   -2453672.599   -882389.234  -6382797.555
10 0 59777  55782.000000  0   -1796981.959   -298546.982  -6649996.416
10 0 59777  55902.000000  0   -1099005.376    278612.621  -6801187.541
10 0 59777  56022.000000  0    -372047.324    838479.521  -6833770.539
10 0 59777  56142.000000  0     370913.820   1370966.908  -6747183.814
10 0 59777  56262.000000  0    1116450.689   1866687.531  -6542914.029
10 0 59777  56382.000000  0    1850924.764   2317116.434  -6224475.140
10 0 59777  56502.000000  0    2560731.007   2714736.215  -5797354.233
10 0 59777  56622.000000  0    3232546.656   3053162.670  -5268925.601
10 0 59777  56742.000000  0    3853579.117   3327248.893  -4648335.077
10 0 59777  56862.000000  0    4411811.971   3533167.504  -3946353.530
10 0 59777  56982.000000  0    4896242.666   3668467.232  -3175199.278
10 0 59777  57102.000000  0    5297105.362   3732102.507  -2348331.691
10 0 59777  57222.000000  0    5606074.796   3724436.222  -1480219.977
10 0 59777  57342.000000  0    5816446.156   3647213.273   -586089.140
10 0 59777  57462.000000  0    5923285.130   3503505.629    318350.550
10 0 59777  57582.000000  0    5923545.047   3297630.076   1217186.083
10 0 59777  57702.000000  0    5816146.071   3035039.822   2094590.315
10 0 59777  57822.000000  0    5602014.565   2722193.672   2935109.159
10 0 59777  57942.000000  0    5284082.180   2366405.502   3723942.628
10 0 59777  58062.000000  0    4867242.824   1975677.285   4447211.887
10 0 59777  58182.000000  0    4358270.399   1558521.148   5092205.032
10 0 59777  58302.000000  0    3765703.265   1123775.065   5647600.883
10 0 59777  58422.000000  0    3099690.871    680415.849   6103666.617
10 0 59777  58542.000000  0    2371811.219    237374.080   6452420.960
10 0 59777  58662.000000  0    1594865.553   -196643.780   6687767.139
10 0 59777  58782.000000  0     782650.582   -613325.291   6805595.275
10 0 59777  58902.000000  0     -50289.149  -1004910.707   6803849.859
10 0 59777  59022.000000  0    -888921.880  -1364336.689   6682562.435
10 0 59777  59142.000000  0   -1717999.150  -1685363.841   6443850.096
10 0 59777  59262.000000  0   -2522331.104  -1962684.526   6091879.677
10 0 59777  59382.000000  0   -3287063.221  -2192010.421   5632801.653
10 0 59777  59502.000000  0   -3997954.810  -2370140.751   5074650.761
10 0 59777  59622.000000  0   -4641649.546  -2495007.643   4427209.967
10 0 59777  59742.000000  0   -5205932.671  -2565697.184   3701842.811
10 0 59777  59862.000000  0   -5679969.703  -2582445.619   2911296.804
10 0 59777  59982.000000  0   -6054522.737  -2546611.828   2069480.868
10 0 59777  60102.000000  0   -6322139.731  -2460627.199   1191218.421
10 0 59777  60222.000000  0   -6477309.262  -2327921.448    291979.053
10 0 59777  60342.000000  0   -6516576.387  -2152826.778   -612401.365
10 0 59777  60462.000000  0   -6438618.517  -1940463.296  -1506009.256
10 0 59777  60582.000000  0   -6244276.223  -1696608.627  -2373142.442
10 0 59777  60702.000000  0   -5936540.693  -1427555.500  -3198592.589
10 0 59777  60822.000000  0   -5520498.770  -1139960.905  -3967915.679
10 0 59777  60942.000000  0   -5003237.680   -840690.742  -4667685.229
10 0 59777  61062.000000  0   -4393712.259   -536663.382  -5285723.602
10 0 59777  61182.000000  0   -3702577.785   -234696.588  -5811307.211
10 0 59777  61302.000000  0   -2941993.686     58639.179  -6235342.278
10 0 59777  61422.000000  0   -2125403.732    337157.722  -6550510.008
10 0 59777  61542.000000  0   -1267296.244    595181.315  -6751381.652
10 0 59777  61662.000000  0    -382948.636    827651.235  -6834501.916
10 0 59777  61782.000000  0     511838.981   1030223.569  -6798440.667
10 0 59777  61902.000000  0    1401017.924   1199347.087  -6643816.168
10 0 59777  62022.000000  0    2268573.162   1332324.534  -6373287.588
10 0 59777  62142.000000  0    3098806.492   1427355.539  -5991513.937
10 0 59777  62262.000000  0    3876616.715   1483559.808  -5505080.871
10 0 59777  62382.000000  0    4587772.419   1500980.892  -4922398.205
10 0 59777  62502.000000  0    5219176.000   1480570.754  -4253566.501
10 0 59777  62622.000000  0    5759111.494   1424154.604  -3510211.728
10 0 59777  62742.000000  0    6197470.853   1334376.373  -2705291.679
10 0 59777  62862.000000  0    6525955.138   1214625.952  -1852876.037
10 0 59777  62982.000000  0    6738244.388   1068949.646   -967901.278
10 0 59777  63102.000000  0    6830130.112    901944.906    -65905.887
10 0 59777  63222.000000  0    6799606.073    718642.819    837248.383
10 0 59777  63342.000000  0    6646916.827    524381.215   1725662.168
10 0 59777  63462.000000  0    6374561.628    324670.059   2583688.163
10 0 59777  63582.000000  0    5987250.467    125054.187   3396215.514
10 0 59777  63702.000000  0    5491816.688    -69024.055   4148942.949
10 0 59777  63822.000000  0    4897087.366   -252356.799   4828633.677
10 0 59777  63942.000000  0    4213717.194   -420096.371   5423350.556
10 0 59777  64062.000000  0    3453985.860   -567871.020   5922663.669
10 0 59777  64182.000000  0    2631568.851   -691886.618   6317828.411
10 0 59777  64302.000000  0    1761284.958   -789014.219   6601932.839
10 0 59777  64422.000000  0     858825.208   -856861.238   6770013.744
10 0 59777  64542.000000  0     -59533.436   -893825.051   6819137.903
10 0 59777  64662.000000  0    -977221.811   -899127.896   6748448.719
10 0 59777  64782.000000  0   -1877676.210   -872832.911   6559179.549
10 0 59777  64902.000000  0   -2744635.646   -815840.289   6254633.124
10 0 59777  65022.000000  0   -3562434.597   -729864.092   5840128.688
10 0 59777  65142.000000  0   -4316288.942   -617390.277   5322916.005
10 0 59777  65262.000000  0   -4992569.181   -481616.925   4712054.959
10 0 59777  65382.000000  0   -5579054.470   -326377.035   4018261.531
99
